{"type": "FeatureCollection", "features": [ {"type": "Feature", "properties": {"norad_id": 41175, "name": "GSAT0208 (GALILEO 11)", "group": "galileo", "lat": -5.51184845503491, "lon": 102.85747152936253, "alt_km": 23217.84608136376, "timestamp": "2025-12-02T17:49:12.290804+00:00", "meta": {"OBJECT_NAME": "GSAT0208 (GALILEO 11)", "OBJECT_ID": "2015-079B", "EPOCH": "2025-11-30T09:46:10.644960", "MEAN_MOTION": 1.70474193, "ECCENTRICITY": 0.00018872, "INCLINATION": 55.7038, "RA_OF_ASC_NODE": 106.7167, "ARG_OF_PERICENTER": 11.7228, "MEAN_ANOMALY": 348.2564, "EPHEMERIS_TYPE": 0, "CLASSIFICATION_TYPE": "U", "NORAD_CAT_ID": 41175, "ELEMENT_SET_NO": 999, "REV_AT_EPOCH": 6180, "BSTAR": 0, "MEAN_MOTION_DOT": 4.8e-07, "MEAN_MOTION_DDOT": 0}, "tle": {"line1": "1 41175U 15079B   25334.40706765  .00000048  00000+0  00000+0 0  9992", "line2": "2 41175  55.7038 106.7167 0001887  11.7228 348.2564  1.70474193 61804"}}, "geometry": {"type": "Point", "coordinates": [102.85747152936253, -5.51184845503491]}}, {"type": "Feature", "properties": {"norad_id": 41549, "name": "GSAT0211 (GALILEO 14)", "group": "galileo", "lat": -54.53588997239941, "lon": 149.55964990976992, "alt_km": 23228.85643227903, "timestamp": "2025-12-02T17:49:12.290815+00:00", "meta": {"OBJECT_NAME": "GSAT0211 (GALILEO 14)", "OBJECT_ID": "2016-030A", "EPOCH": "2025-12-01T16:54:04.942368", "MEAN_MOTION": 1.70472896, "ECCENTRICITY": 0.00038995, "INCLINATION": 55.1563, "RA_OF_ASC_NODE": 227.1275, "ARG_OF_PERICENTER": 10.5053, "MEAN_ANOMALY": 349.5828, "EPHEMERIS_TYPE": 0, "CLASSIFICATION_TYPE": "U", "NORAD_CAT_ID": 41549, "ELEMENT_SET_NO": 999, "REV_AT_EPOCH": 5930, "BSTAR": 0, "MEAN_MOTION_DOT": 3.3e-07, "MEAN_MOTION_DDOT": 0}, "tle": {"line1": "1 41549U 16030A   25335.70422387  .00000033  00000+0  00000+0 0  9998", "line2": "2 41549  55.1563 227.1275 0003899  10.5053 349.5828  1.70472896 59309"}}, "geometry": {"type": "Point", "coordinates": [149.55964990976992, -54.53588997239941]}}, {"type": "Feature", "properties": {"norad_id": 41550, "name": "GSAT0210 (GALILEO 13)", "group": "galileo", "lat": 45.7607705565037, "lon": 1.511406440014696, "alt_km": 23218.70555997539, "timestamp": "2025-12-02T17:49:12.290826+00:00", "meta": {"OBJECT_NAME": "GSAT0210 (GALILEO 13)", "OBJECT_ID": "2016-030B", "EPOCH": "2025-12-01T09:00:06.320160", "MEAN_MOTION": 1.70473417, "ECCENTRICITY": 0.00012162, "INCLINATION": 55.1557, "RA_OF_ASC_NODE": 227.1346, "ARG_OF_PERICENTER": 241.6156, "MEAN_ANOMALY": 118.4503, "EPHEMERIS_TYPE": 0, "CLASSIFICATION_TYPE": "U", "NORAD_CAT_ID": 41550, "ELEMENT_SET_NO": 999, "REV_AT_EPOCH": 5929, "BSTAR": 0, "MEAN_MOTION_DOT": 3.2e-07, "MEAN_MOTION_DDOT": 0}, "tle": {"line1": "1 41550U 16030B   25335.37507315  .00000032  00000+0  00000+0 0  9997", "line2": "2 41550  55.1557 227.1346 0001216 241.6156 118.4503  1.70473417 59296"}}, "geometry": {"type": "Point", "coordinates": [1.511406440014696, 45.7607705565037]}}, {"type": "Feature", "properties": {"norad_id": 41859, "name": "GSAT0207 (GALILEO 15)", "group": "galileo", "lat": -40.14837400265661, "lon": 70.87768941145129, "alt_km": 23221.112039437616, "timestamp": "2025-12-02T17:49:12.290858+00:00", "meta": {"OBJECT_NAME": "GSAT0207 (GALILEO 15)", "OBJECT_ID": "2016-069A", "EPOCH": "2025-11-30T11:31:32.297952", "MEAN_MOTION": 1.70474248, "ECCENTRICITY": 0.00020596, "INCLINATION": 55.375, "RA_OF_ASC_NODE": 106.5899, "ARG_OF_PERICENTER": 325.7449, "MEAN_ANOMALY": 34.2162, "EPHEMERIS_TYPE": 0, "CLASSIFICATION_TYPE": "U", "NORAD_CAT_ID": 41859, "ELEMENT_SET_NO": 999, "REV_AT_EPOCH": 5601, "BSTAR": 0, "MEAN_MOTION_DOT": 4.7e-07, "MEAN_MOTION_DDOT": 0}, "tle": {"line1": "1 41859U 16069A   25334.48023493  .00000047  00000+0  00000+0 0  9998", "line2": "2 41859  55.3750 106.5899 0002059 325.7449  34.2162  1.70474248 56019"}}, "geometry": {"type": "Point", "coordinates": [70.87768941145129, -40.14837400265661]}}, {"type": "Feature", "properties": {"norad_id": 41860, "name": "GSAT0212 (GALILEO 16)", "group": "galileo", "lat": 30.622085534565155, "lon": 130.63164088583034, "alt_km": 23211.716469852072, "timestamp": "2025-12-02T17:49:12.290886+00:00", "meta": {"OBJECT_NAME": "GSAT0212 (GALILEO 16)", "OBJECT_ID": "2016-069B", "EPOCH": "2025-12-01T12:10:10.642368", "MEAN_MOTION": 1.70474441, "ECCENTRICITY": 0.00022648, "INCLINATION": 55.3731, "RA_OF_ASC_NODE": 106.5568, "ARG_OF_PERICENTER": 35.1599, "MEAN_ANOMALY": 324.8229, "EPHEMERIS_TYPE": 0, "CLASSIFICATION_TYPE": "U", "NORAD_CAT_ID": 41860, "ELEMENT_SET_NO": 999, "REV_AT_EPOCH": 5628, "BSTAR": 0, "MEAN_MOTION_DOT": 3.8e-07, "MEAN_MOTION_DDOT": 0}, "tle": {"line1": "1 41860U 16069B   25335.50706762  .00000038  00000+0  00000+0 0  9991", "line2": "2 41860  55.3731 106.5568 0002264  35.1599 324.8229  1.70474441 56285"}}, "geometry": {"type": "Point", "coordinates": [130.63164088583034, 30.622085534565155]}}, {"type": "Feature", "properties": {"norad_id": 41861, "name": "GSAT0213 (GALILEO 17)", "group": "galileo", "lat": 6.052827087690341, "lon": -77.6903124212269, "alt_km": 23223.810538777216, "timestamp": "2025-12-02T17:49:12.290900+00:00", "meta": {"OBJECT_NAME": "GSAT0213 (GALILEO 17)", "OBJECT_ID": "2016-069C", "EPOCH": "2025-12-01T20:59:28.954752", "MEAN_MOTION": 1.70474717, "ECCENTRICITY": 0.00020626, "INCLINATION": 55.3756, "RA_OF_ASC_NODE": 106.5542, "ARG_OF_PERICENTER": 284.0381, "MEAN_ANOMALY": 75.9044, "EPHEMERIS_TYPE": 0, "CLASSIFICATION_TYPE": "U", "NORAD_CAT_ID": 41861, "ELEMENT_SET_NO": 999, "REV_AT_EPOCH": 5615, "BSTAR": 0, "MEAN_MOTION_DOT": 3.5e-07, "MEAN_MOTION_DDOT": 0}, "tle": {"line1": "1 41861U 16069C   25335.87464068  .00000035  00000+0  00000+0 0  9999", "line2": "2 41861  55.3756 106.5542 0002062 284.0381  75.9044  1.70474717 56156"}}, "geometry": {"type": "Point", "coordinates": [-77.6903124212269, 6.052827087690341]}}, {"type": "Feature", "properties": {"norad_id": 41862, "name": "GSAT0214 (GALILEO 18)", "group": "galileo", "lat": 54.764757221828006, "lon": -175.6049099201324, "alt_km": 23218.47969955748, "timestamp": "2025-12-02T17:49:12.290912+00:00", "meta": {"OBJECT_NAME": "GSAT0214 (GALILEO 18)", "OBJECT_ID": "2016-069D", "EPOCH": "2025-11-29T16:11:01.864032", "MEAN_MOTION": 1.70474561, "ECCENTRICITY": 0.00010374, "INCLINATION": 55.3728, "RA_OF_ASC_NODE": 106.6081, "ARG_OF_PERICENTER": 291.61, "MEAN_ANOMALY": 68.3572, "EPHEMERIS_TYPE": 0, "CLASSIFICATION_TYPE": "U", "NORAD_CAT_ID": 41862, "ELEMENT_SET_NO": 999, "REV_AT_EPOCH": 5624, "BSTAR": 0, "MEAN_MOTION_DOT": 5.1e-07, "MEAN_MOTION_DDOT": 0}, "tle": {"line1": "1 41862U 16069D   25333.67432713  .00000051  00000+0  00000+0 0  9996", "line2": "2 41862  55.3728 106.6081 0001037 291.6100  68.3572  1.70474561 56248"}}, "geometry": {"type": "Point", "coordinates": [-175.6049099201324, 54.764757221828006]}}, {"type": "Feature", "properties": {"norad_id": 43055, "name": "GSAT0215 (GALILEO 19)", "group": "galileo", "lat": 30.16049684569453, "lon": 23.05360161895595, "alt_km": 23223.13663919674, "timestamp": "2025-12-02T17:49:12.290924+00:00", "meta": {"OBJECT_NAME": "GSAT0215 (GALILEO 19)", "OBJECT_ID": "2017-079A", "EPOCH": "2025-11-29T13:52:03.216864", "MEAN_MOTION": 1.70473718, "ECCENTRICITY": 0.0001588, "INCLINATION": 55.1353, "RA_OF_ASC_NODE": 227.0004, "ARG_OF_PERICENTER": 310.5234, "MEAN_ANOMALY": 49.536, "EPHEMERIS_TYPE": 0, "CLASSIFICATION_TYPE": "U", "NORAD_CAT_ID": 43055, "ELEMENT_SET_NO": 999, "REV_AT_EPOCH": 4958, "BSTAR": 0, "MEAN_MOTION_DOT": 2.7e-07, "MEAN_MOTION_DDOT": 0}, "tle": {"line1": "1 43055U 17079A   25333.57781501  .00000027  00000+0  00000+0 0  9998", "line2": "2 43055  55.1353 227.0004 0001588 310.5234  49.5360  1.70473718 49587"}}, "geometry": {"type": "Point", "coordinates": [23.05360161895595, 30.16049684569453]}}, {"type": "Feature", "properties": {"norad_id": 43056, "name": "GSAT0216 (GALILEO 20)", "group": "galileo", "lat": -29.2695244825675, "lon": -156.05044768285038, "alt_km": 23218.0655651757, "timestamp": "2025-12-02T17:49:12.290935+00:00", "meta": {"OBJECT_NAME": "GSAT0216 (GALILEO 20)", "OBJECT_ID": "2017-079B", "EPOCH": "2025-12-01T01:00:54.249120", "MEAN_MOTION": 1.70473856, "ECCENTRICITY": 0.00027137, "INCLINATION": 55.1346, "RA_OF_ASC_NODE": 226.9601, "ARG_OF_PERICENTER": 312.5245, "MEAN_ANOMALY": 47.5297, "EPHEMERIS_TYPE": 0, "CLASSIFICATION_TYPE": "U", "NORAD_CAT_ID": 43056, "ELEMENT_SET_NO": 999, "REV_AT_EPOCH": 4962, "BSTAR": 0, "MEAN_MOTION_DOT": 3.1e-07, "MEAN_MOTION_DDOT": 0}, "tle": {"line1": "1 43056U 17079B   25335.04229455  .00000031  00000+0  00000+0 0  9993", "line2": "2 43056  55.1346 226.9601 0002713 312.5245  47.5297  1.70473856 49621"}}, "geometry": {"type": "Point", "coordinates": [-156.05044768285038, -29.2695244825675]}}, {"type": "Feature", "properties": {"norad_id": 43057, "name": "GSAT0217 (GALILEO 21)", "group": "galileo", "lat": -6.566991337097676, "lon": 51.50978112298879, "alt_km": 23230.59568315114, "timestamp": "2025-12-02T17:49:12.290946+00:00", "meta": {"OBJECT_NAME": "GSAT0217 (GALILEO 21)", "OBJECT_ID": "2017-079C", "EPOCH": "2025-11-29T12:04:41.145600", "MEAN_MOTION": 1.70473704, "ECCENTRICITY": 0.00027563, "INCLINATION": 55.1326, "RA_OF_ASC_NODE": 227.0006, "ARG_OF_PERICENTER": 340.6935, "MEAN_ANOMALY": 19.3693, "EPHEMERIS_TYPE": 0, "CLASSIFICATION_TYPE": "U", "NORAD_CAT_ID": 43057, "ELEMENT_SET_NO": 999, "REV_AT_EPOCH": 4958, "BSTAR": 0, "MEAN_MOTION_DOT": 2.7e-07, "MEAN_MOTION_DDOT": 0}, "tle": {"line1": "1 43057U 17079C   25333.50325400  .00000027  00000+0  00000+0 0  9995", "line2": "2 43057  55.1326 227.0006 0002756 340.6935  19.3693  1.70473704 49580"}}, "geometry": {"type": "Point", "coordinates": [51.50978112298879, -6.566991337097676]}}]}